start=new Date('2023-04-27T00:00:00.000Z').valueOf();
sats=[{"NORAD_CAT_ID":"55478","REV_AT_EPOCH":"130","OBJECT_NAME":"STARLINK-5691","TLE_LINE1":"1 55478U 23015AF  23116.91667824 -.00946211  00000-0 -33357-1 0  9993","OBJECT_TYPE":"PAYLOAD","FILE":"3894261","EPHEMERIS_TYPE":"0","ECCENTRICITY":"0.00015820","APOAPSIS":"473.756","BSTAR":"-0.03335700000000","RCS_SIZE":"LARGE","GP_ID":"230802844","MEAN_MOTION_DDOT":"0.0000000000000","TLE_LINE2":"2 55478  42.9987 248.5693 0001582 278.9698 127.0765 15.31052598  1303","INCLINATION":"42.9987","RA_OF_ASC_NODE":"248.5693","OBJECT_ID":"2023-015AF","MEAN_MOTION":"15.31052598","MEAN_ANOMALY":"127.0765","EPOCH":"2023-04-26T22:00:00.999936","REF_FRAME":"TEME","MEAN_MOTION_DOT":"-0.00946211","PERIOD":"94.053","COUNTRY_CODE":"US","CENTER_NAME":"EARTH","CLASSIFICATION_TYPE":"U","SEMIMAJOR_AXIS":"6850.808","DECAY_DATE":null,"ARG_OF_PERICENTER":"278.9698","MEAN_ELEMENT_THEORY":"SGP4","ELEMENT_SET_NO":"999","TIME_SYSTEM":"UTC","LAUNCH_DATE":"2023-02-02","PERIAPSIS":"471.589","SITE":"AFETR"},{"NORAD_CAT_ID":"55479","REV_AT_EPOCH":"130","TLE_LINE1":"1 55479U 23015AG  23116.91667824 -.00946479  00000-0 -33710-1 0  9993","OBJECT_NAME":"STARLINK-5688","EPHEMERIS_TYPE":"0","APOAPSIS":"474.726","ECCENTRICITY":"0.00015770","OBJECT_TYPE":"PAYLOAD","FILE":"3894261","BSTAR":"-0.03371000000000","MEAN_MOTION_DDOT":"0.0000000000000","RCS_SIZE":"LARGE","GP_ID":"230801592","RA_OF_ASC_NODE":"248.6018","TLE_LINE2":"2 55479  42.9982 248.6018 0001577 276.5057 116.0891 15.30726344  1302","INCLINATION":"42.9982","OBJECT_ID":"2023-015AG","EPOCH":"2023-04-26T22:00:00.999936","MEAN_MOTION":"15.30726344","MEAN_ANOMALY":"116.0891","REF_FRAME":"TEME","MEAN_MOTION_DOT":"-0.00946479","CENTER_NAME":"EARTH","PERIOD":"94.073","COUNTRY_CODE":"US","SEMIMAJOR_AXIS":"6851.781","ARG_OF_PERICENTER":"276.5057","DECAY_DATE":null,"CLASSIFICATION_TYPE":"U","ELEMENT_SET_NO":"999","MEAN_ELEMENT_THEORY":"SGP4","TIME_SYSTEM":"UTC","PERIAPSIS":"472.565","SITE":"AFETR","LAUNCH_DATE":"2023-02-02"},{"LAUNCH_DATE":"2023-02-02","PERIAPSIS":"560.607","SITE":"AFETR","TIME_SYSTEM":"UTC","MEAN_ELEMENT_THEORY":"SGP4","ELEMENT_SET_NO":"999","CLASSIFICATION_TYPE":"U","SEMIMAJOR_AXIS":"6939.705","DECAY_DATE":null,"ARG_OF_PERICENTER":"257.0193","PERIOD":"95.890","COUNTRY_CODE":"US","CENTER_NAME":"EARTH","REF_FRAME":"TEME","MEAN_MOTION_DOT":"0.00009007","MEAN_MOTION":"15.01728011","MEAN_ANOMALY":"103.0494","EPOCH":"2023-04-26T16:31:06.127104","OBJECT_ID":"2023-015AH","TLE_LINE2":"2 55480  43.0001 270.3854 0001387 257.0193 103.0494 15.01728011 12995","INCLINATION":"43.0001","RA_OF_ASC_NODE":"270.3854","RCS_SIZE":"LARGE","GP_ID":"230801842","MEAN_MOTION_DDOT":"0.0000000000000","BSTAR":"0.00069557000000","FILE":"3894261","OBJECT_TYPE":"PAYLOAD","EPHEMERIS_TYPE":"0","APOAPSIS":"562.532","ECCENTRICITY":"0.00013870","OBJECT_NAME":"STARLINK-5690","TLE_LINE1":"1 55480U 23015AH  23116.68826536  .00009007  00000-0  69557-3 0  9991","NORAD_CAT_ID":"55480","REV_AT_EPOCH":"1299"},{"SEMIMAJOR_AXIS":"6937.200","ARG_OF_PERICENTER":"268.3649","DECAY_DATE":null,"CLASSIFICATION_TYPE":"U","ELEMENT_SET_NO":"999","MEAN_ELEMENT_THEORY":"SGP4","TIME_SYSTEM":"UTC","PERIAPSIS":"557.911","SITE":"AFETR","LAUNCH_DATE":"2023-02-02","OBJECT_ID":"2023-015AJ","EPOCH":"2023-04-26T17:49:31.905696","MEAN_MOTION":"15.02541376","MEAN_ANOMALY":"91.7003","REF_FRAME":"TEME","MEAN_MOTION_DOT":"0.00007645","CENTER_NAME":"EARTH","COUNTRY_CODE":"US","PERIOD":"95.838","BSTAR":"0.00058032000000","MEAN_MOTION_DDOT":"0.0000000000000","RCS_SIZE":"LARGE","GP_ID":"230803093","RA_OF_ASC_NODE":"273.3945","TLE_LINE2":"2 55481  43.0011 273.3945 0001663 268.3649  91.7003 15.02541376 12963","INCLINATION":"43.0011","NORAD_CAT_ID":"55481","REV_AT_EPOCH":"1296","TLE_LINE1":"1 55481U 23015AJ  23116.74273039  .00007645  00000-0  58032-3 0  9995","OBJECT_NAME":"STARLINK-5694","EPHEMERIS_TYPE":"0","APOAPSIS":"560.219","ECCENTRICITY":"0.00016630","FILE":"3894261","OBJECT_TYPE":"PAYLOAD"},{"INCLINATION":"43.0005","TLE_LINE2":"2 55482  43.0005 273.2266 0001826 263.0259  97.0375 15.02547009 12962","RA_OF_ASC_NODE":"273.2266","BSTAR":"0.00022016000000","GP_ID":"230803344","RCS_SIZE":"LARGE","MEAN_MOTION_DDOT":"0.0000000000000","OBJECT_NAME":"STARLINK-5693","TLE_LINE1":"1 55482U 23015AK  23116.72052167  .00002772  00000-0  22016-3 0  9990","OBJECT_TYPE":"PAYLOAD","FILE":"3894261","ECCENTRICITY":"0.00018260","APOAPSIS":"560.314","EPHEMERIS_TYPE":"0","REV_AT_EPOCH":"1296","NORAD_CAT_ID":"55482","TIME_SYSTEM":"UTC","LAUNCH_DATE":"2023-02-02","SITE":"AFETR","PERIAPSIS":"557.781","CLASSIFICATION_TYPE":"U","DECAY_DATE":null,"ARG_OF_PERICENTER":"263.0259","SEMIMAJOR_AXIS":"6937.183","MEAN_ELEMENT_THEORY":"SGP4","ELEMENT_SET_NO":"999","MEAN_MOTION_DOT":"0.00002772","REF_FRAME":"TEME","PERIOD":"95.837","COUNTRY_CODE":"US","CENTER_NAME":"EARTH","OBJECT_ID":"2023-015AK","MEAN_ANOMALY":"97.0375","MEAN_MOTION":"15.02547009","EPOCH":"2023-04-26T17:17:33.072288"},{"NORAD_CAT_ID":"55483","REV_AT_EPOCH":"1296","EPHEMERIS_TYPE":"0","APOAPSIS":"560.460","ECCENTRICITY":"0.00020460","FILE":"3894261","OBJECT_TYPE":"PAYLOAD","TLE_LINE1":"1 55483U 23015AL  23116.73163686  .00027154  00000-0  20167-2 0  9996","OBJECT_NAME":"STARLINK-5692","MEAN_MOTION_DDOT":"0.0000000000000","RCS_SIZE":"LARGE","GP_ID":"230802092","BSTAR":"0.00201670000000","RA_OF_ASC_NODE":"273.3098","TLE_LINE2":"2 55483  43.0002 273.3098 0002046 247.1310 112.9317 15.02549316 12966","INCLINATION":"43.0002","EPOCH":"2023-04-26T17:33:33.424704","MEAN_MOTION":"15.02549316","MEAN_ANOMALY":"112.9317","OBJECT_ID":"2023-015AL","CENTER_NAME":"EARTH","COUNTRY_CODE":"US","PERIOD":"95.837","REF_FRAME":"TEME","MEAN_MOTION_DOT":"0.00027154","ELEMENT_SET_NO":"999","MEAN_ELEMENT_THEORY":"SGP4","SEMIMAJOR_AXIS":"6937.176","ARG_OF_PERICENTER":"247.1310","DECAY_DATE":null,"CLASSIFICATION_TYPE":"U","PERIAPSIS":"557.621","SITE":"AFETR","LAUNCH_DATE":"2023-02-02","TIME_SYSTEM":"UTC"},{"BSTAR":"0.00081854000000","RCS_SIZE":"LARGE","GP_ID":"230802342","MEAN_MOTION_DDOT":"0.0000000000000","TLE_LINE2":"2 55484  43.0006 272.5279 0002105 269.0068  91.0534 15.02545929 12988","INCLINATION":"43.0006","RA_OF_ASC_NODE":"272.5279","NORAD_CAT_ID":"55484","REV_AT_EPOCH":"1298","OBJECT_NAME":"STARLINK-5696","TLE_LINE1":"1 55484U 23015AM  23116.85681939  .00010874  00000-0  81854-3 0  9998","OBJECT_TYPE":"PAYLOAD","FILE":"3894261","EPHEMERIS_TYPE":"0","ECCENTRICITY":"0.00021050","APOAPSIS":"560.511","CLASSIFICATION_TYPE":"U","SEMIMAJOR_AXIS":"6937.186","DECAY_DATE":null,"ARG_OF_PERICENTER":"269.0068","MEAN_ELEMENT_THEORY":"SGP4","ELEMENT_SET_NO":"999","TIME_SYSTEM":"UTC","LAUNCH_DATE":"2023-02-02","PERIAPSIS":"557.591","SITE":"AFETR","OBJECT_ID":"2023-015AM","MEAN_MOTION":"15.02545929","MEAN_ANOMALY":"91.0534","EPOCH":"2023-04-26T20:33:49.195296","REF_FRAME":"TEME","MEAN_MOTION_DOT":"0.00010874","PERIOD":"95.837","COUNTRY_CODE":"US","CENTER_NAME":"EARTH"},{"MEAN_ELEMENT_THEORY":"SGP4","ELEMENT_SET_NO":"999","CLASSIFICATION_TYPE":"U","SEMIMAJOR_AXIS":"6937.083","DECAY_DATE":null,"ARG_OF_PERICENTER":"264.8953","LAUNCH_DATE":"2023-02-02","PERIAPSIS":"557.723","SITE":"AFETR","TIME_SYSTEM":"UTC","MEAN_MOTION":"15.02579350","MEAN_ANOMALY":"95.1688","EPOCH":"2023-04-26T20:53:00.086496","OBJECT_ID":"2023-015AN","PERIOD":"95.835","COUNTRY_CODE":"US","CENTER_NAME":"EARTH","REF_FRAME":"TEME","MEAN_MOTION_DOT":"0.00039846","RCS_SIZE":"LARGE","GP_ID":"230802594","MEAN_MOTION_DDOT":"0.0000000000000","BSTAR":"0.00294460000000","TLE_LINE2":"2 55485  42.9985 272.6249 0001766 264.8953  95.1688 15.02579350 12989","INCLINATION":"42.9985","RA_OF_ASC_NODE":"272.6249","NORAD_CAT_ID":"55485","REV_AT_EPOCH":"1298","FILE":"3894261","OBJECT_TYPE":"PAYLOAD","EPHEMERIS_TYPE":"0","APOAPSIS":"560.173","ECCENTRICITY":"0.00017660","OBJECT_NAME":"STARLINK-5695","TLE_LINE1":"1 55485U 23015AN  23116.87013989  .00039846  00000-0  29446-2 0  9993"},{"TLE_LINE2":"2 55486  43.0012 271.5540 0001800 291.4963  68.5687 15.01737016 12988","INCLINATION":"43.0012","RA_OF_ASC_NODE":"271.5540","BSTAR":"-0.00004833800000","RCS_SIZE":"LARGE","GP_ID":"230802845","MEAN_MOTION_DDOT":"0.0000000000000","OBJECT_NAME":"STARLINK-5704","TLE_LINE1":"1 55486U 23015AP  23116.72810825 -.00000841  00000-0 -48338-4 0  9990","FILE":"3894261","OBJECT_TYPE":"PAYLOAD","EPHEMERIS_TYPE":"0","APOAPSIS":"562.791","ECCENTRICITY":"0.00018000","NORAD_CAT_ID":"55486","REV_AT_EPOCH":"1298","TIME_SYSTEM":"UTC","LAUNCH_DATE":"2023-02-02","PERIAPSIS":"560.293","SITE":"AFETR","CLASSIFICATION_TYPE":"U","SEMIMAJOR_AXIS":"6939.677","DECAY_DATE":null,"ARG_OF_PERICENTER":"291.4963","MEAN_ELEMENT_THEORY":"SGP4","ELEMENT_SET_NO":"999","REF_FRAME":"TEME","MEAN_MOTION_DOT":"-0.00000841","PERIOD":"95.889","COUNTRY_CODE":"US","CENTER_NAME":"EARTH","OBJECT_ID":"2023-015AP","MEAN_MOTION":"15.01737016","MEAN_ANOMALY":"68.5687","EPOCH":"2023-04-26T17:28:28.552800"},{"CENTER_NAME":"EARTH","COUNTRY_CODE":"US","PERIOD":"95.837","MEAN_MOTION_DOT":"0.00026449","REF_FRAME":"TEME","EPOCH":"2023-04-26T17:44:45.170016","MEAN_ANOMALY":"112.2004","MEAN_MOTION":"15.02546938","OBJECT_ID":"2023-015AQ","SITE":"AFETR","PERIAPSIS":"557.633","LAUNCH_DATE":"2023-02-02","TIME_SYSTEM":"UTC","ELEMENT_SET_NO":"999","MEAN_ELEMENT_THEORY":"SGP4","ARG_OF_PERICENTER":"247.8622","DECAY_DATE":null,"SEMIMAJOR_AXIS":"6937.183","CLASSIFICATION_TYPE":"U","APOAPSIS":"560.463","ECCENTRICITY":"0.00020400","EPHEMERIS_TYPE":"0","FILE":"3894261","OBJECT_TYPE":"PAYLOAD","TLE_LINE1":"1 55487U 23015AQ  23116.73941169  .00026449  00000-0  19650-2 0  9991","OBJECT_NAME":"STARLINK-5701","REV_AT_EPOCH":"1296","NORAD_CAT_ID":"55487","RA_OF_ASC_NODE":"273.3693","INCLINATION":"43.0003","TLE_LINE2":"2 55487  43.0003 273.3693 0002040 247.8622 112.2004 15.02546938 12962","MEAN_MOTION_DDOT":"0.0000000000000","GP_ID":"230801593","RCS_SIZE":"LARGE","BSTAR":"0.00196500000000"}];
